GLOBALSTAR M067         
1 32263U 07048A   26013.59104117 -.00000123  00000+0 -18770-3 0  9998
2 32263  51.9720 140.2647 0001971  90.6015 283.2423 12.40683803835606
GLOBALSTAR M070         
1 32264U 07048B   26013.82377358 -.00000067  00000+0  20723-3 0  9991
2 32264  51.9724 206.8125 0000881  86.2859 287.4898 12.62329340840275
GLOBALSTAR M066         
1 32265U 07048C   26013.65390598 -.00000107  00000+0 -10769-3 0  9999
2 32265  51.9578 141.5325 0005762  84.9957  17.2559 12.30384699841207
GLOBALSTAR M068         
1 32266U 07048D   26013.99363843 -.00000113  00000+0 -47570-4 0  9998
2 32266  51.9907  19.6395 0000870 231.1056 147.4889 12.62837658844193
GLOBALSTAR M079         
1 37188U 10054A   26013.98755859 -.00000083  00000+0  11840-3 0  9993
2 37188  52.0012 218.0776 0001193  71.1358  93.8416 12.62269928703074
GLOBALSTAR M074         
1 37189U 10054B   26013.82243544 -.00000073  00000+0  17002-3 0  9995
2 37189  51.9990 217.8705 0001191  87.4890 286.1581 12.62265443703669
GLOBALSTAR M076         
1 37190U 10054C   26013.84904524 -.00000063  00000+0  22630-3 0  9993
2 37190  52.0003 217.9801 0001313  81.7662 292.1548 12.62269432703387
GLOBALSTAR M077         
1 37191U 10054D   26013.79765389 -.00000044  00000+0  62920-3 0  9997
2 37191  51.9940 211.4316 0001728  78.0943 294.8035 11.68177559703100
